NORAD_CAT_ID,OBJECT_NAME,OBJECT_TYPE,EPOCH,MEAN_MOTION,ECCENTRICITY,INCLINATION,RA_OF_ASC_NODE,ARG_OF_PERICENTER,MEAN_ANOMALY,BSTAR,MEAN_MOTION_DOT,MEAN_MOTION_DDOT,TLE_LINE0,TLE_LINE1,TLE_LINE2,SEMIMAJOR_AXIS,PERIOD,APOGEE,PERIGEE,DECAYED
52139.0,STARLINK-3730,PAYLOAD,2022-09-04 20:00:01,15.08841387,0.0001771999999999,53.2168,73.5905,59.2064,322.1051,0.00021822,3.187e-05,0.0,0 STARLINK-3730,1 52139U 22029BD  22247.83334491  .00003187  00000-0  21822-3 0  9994,2 52139  53.2168  73.5905 0001772  59.2064 322.1051 15.08841387 27276,6917.876,95.437,540.967,538.515,0.0
52139.0,STARLINK-3730,PAYLOAD,2022-09-05 14:00:01,15.08844102,0.0001549,53.2166,70.2223,63.1457,74.277,-0.00048428,-7.988e-05,0.0,0 STARLINK-3730,1 52139U 22029BD  22248.58334491 -.00007988  00000-0 -48428-3 0  9993,2 52139  53.2166  70.2223 0001549  63.1457  74.2770 15.08844102  1300,6917.868,95.437,540.804,538.661,0.0
52139.0,STARLINK-3730,PAYLOAD,2022-09-05 22:00:00,15.08813107,0.0001613,53.2165,68.7275,53.6973,95.3285,0.00080606,0.00012554,0.0,0 STARLINK-3730,1 52139U 22029BD  22248.91667824  .00012554  00000-0  80606-3 0  9996,2 52139  53.2165  68.7275 0001613  53.6973  95.3285 15.08813107  1303,6917.9630000000025,95.439,540.943,538.712,0.0
52139.0,STARLINK-3730,PAYLOAD,2022-09-06 14:00:01,15.08839222,0.0001529,53.2165,65.7332,60.7158,111.4491,-0.00066657,-0.00010881,0.0,0 STARLINK-3730,1 52139U 22029BD  22249.58334491 -.00010881  00000-0 -66657-3 0  9994,2 52139  53.2165  65.7332 0001529  60.7158 111.4491 15.08839222  1309,6917.8830000000025,95.438,540.806,538.69,0.0
52139.0,STARLINK-3730,PAYLOAD,2022-09-06 22:00:00,15.0880935,0.0001641999999999,53.2164,64.2383,51.7553,132.0045,0.0033244,0.00052973,0.0,0 STARLINK-3730,1 52139U 22029BD  22249.91667824  .00052973  00000-0  33244-2 0  9991,2 52139  53.2164  64.2383 0001642  51.7553 132.0045 15.08809350  1306,6917.974,95.439,540.975,538.703,0.0
52139.0,STARLINK-3730,PAYLOAD,2022-09-07 06:00:00,15.08840199,0.0001462,53.2165,62.74,55.532,139.8123,-0.0021119,-0.00033742,0.0,0 STARLINK-3730,1 52139U 22029BD  22250.25001157 -.00033742  00000-0 -21119-2 0  9994,2 52139  53.2165  62.7400 0001462  55.5320 139.8123 15.08840199 27636,6917.88,95.438,540.756,538.7330000000002,0.0
52139.0,STARLINK-3730,PAYLOAD,2022-09-07 14:00:01,15.08833194,0.0001494,53.2166,61.2439,56.958,149.9633,-0.00086548,-0.00014033,0.0,0 STARLINK-3730,1 52139U 22029BD  22250.58334491 -.00014033  00000-0 -86548-3 0  9990,2 52139  53.2166  61.2439 0001494  56.9580 149.9633 15.08833194  1302,6917.901,95.438,540.8,538.7330000000002,0.0
52139.0,STARLINK-3730,PAYLOAD,2022-09-07 22:00:00,15.08801954,0.0001634,53.2166,59.7488,48.8421,169.6648,0.0034274,0.00054625,0.0,0 STARLINK-3730,1 52139U 22029BD  22250.91667824  .00054625  00000-0  34274-2 0  9993,2 52139  53.2166  59.7488 0001634  48.8421 169.6648 15.08801954 27737,6917.996999999999,95.44,540.992,538.731,0.0
52139.0,STARLINK-3730,PAYLOAD,2022-09-08 14:00:01,15.08855969,0.0001557,53.217,56.7545,55.875,185.7938,-0.0010429999999999,-0.00016856,0.0,0 STARLINK-3730,1 52139U 22029BD  22251.58334491 -.00016856  00000-0 -10430-2 0  9992,2 52139  53.2170  56.7545 0001557  55.8750 185.7938 15.08855969  1301,6917.831999999999,95.437,540.774,538.619,0.0
52139.0,STARLINK-3730,PAYLOAD,2022-09-08 22:00:00,15.08839366,0.0001712,53.217,55.2592,49.432,203.8507,0.0014615,0.00023048,0.0,0 STARLINK-3730,1 52139U 22029BD  22251.91667824  .00023048  00000-0  14615-2 0  9996,2 52139  53.2170  55.2592 0001712  49.4320 203.8507 15.08839366 27880,6917.882,95.438,540.932,538.563,0.0
52139.0,STARLINK-3730,PAYLOAD,2022-09-09 14:00:01,15.08855551,0.0001673,53.2175,52.265,57.3228,219.1565,-0.0010512,-0.00016986,0.0,0 STARLINK-3730,1 52139U 22029BD  22252.58334491 -.00016986  00000-0 -10512-2 0  9998,2 52139  53.2175  52.2650 0001673  57.3228 219.1565 15.08855551  1305,6917.833000000001,95.437,540.855,538.5409999999998,0.0
52139.0,STARLINK-3730,PAYLOAD,2022-09-09 22:00:00,15.08842026,0.0001733,53.2173,50.7697,49.9356,238.151,0.00042785,6.528e-05,0.0,0 STARLINK-3730,1 52139U 22029BD  22252.91667824  .00006528  00000-0  42785-3 0  9991,2 52139  53.2173  50.7697 0001733  49.9356 238.1510 15.08842026  1307,6917.874,95.437,540.938,538.54,0.0
52139.0,STARLINK-3730,PAYLOAD,2022-09-10 14:00:01,15.08857452,0.0001556,53.2178,47.7758,53.8396,257.4427,-0.001075,-0.00017364,0.0,0 STARLINK-3730,1 52139U 22029BD  22253.58334491 -.00017364  00000-0 -10750-2 0  9994,2 52139  53.2178  47.7758 0001556  53.8396 257.4427 15.08857452 28137,6917.8269999999975,95.436,540.768,538.616,0.0
52139.0,STARLINK-3730,PAYLOAD,2022-09-10 22:00:00,15.08835753,0.0001605,53.2174,46.2805,46.5682,276.3151,-0.00047652,-7.863e-05,0.0,0 STARLINK-3730,1 52139U 22029BD  22253.91667824 -.00007863  00000-0 -47652-3 0  9995,2 52139  53.2174  46.2805 0001605  46.5682 276.3151 15.08835753  1306,6917.893,95.438,540.869,538.648,0.0
52139.0,STARLINK-3730,PAYLOAD,2022-09-11 14:00:01,15.08855772,0.000149,53.2179,43.2869,51.8398,294.2213,-0.0012654,-0.00020379,0.0,0 STARLINK-3730,1 52139U 22029BD  22254.58334491 -.00020379  00000-0 -12654-2 0  9990,2 52139  53.2179  43.2869 0001490  51.8398 294.2213 15.08855772  1304,6917.831999999999,95.437,540.7280000000002,538.6659999999998,0.0
52139.0,STARLINK-3730,PAYLOAD,2022-09-11 22:00:00,15.08845201,0.0001621999999999,53.2175,41.7913,46.7098,310.9565,-0.00070331,-0.00011465,0.0,0 STARLINK-3730,1 52139U 22029BD  22254.91667824 -.00011465  00000-0 -70331-3 0  9999,2 52139  53.2175  41.7913 0001622  46.7098 310.9565 15.08845201 28345,6917.864000000001,95.437,540.852,538.607,0.0
52139.0,STARLINK-3730,PAYLOAD,2022-09-12 14:00:01,15.08857141,0.0001556,53.2178,38.7982,52.3575,328.4927,-0.0037279,-0.00059158,0.0,0 STARLINK-3730,1 52139U 22029BD  22255.58334491 -.00059158  00000-0 -37279-2 0  9998,2 52139  53.2178  38.7982 0001556  52.3575 328.4927 15.08857141  1308,6917.828,95.436,540.769,538.617,0.0
52139.0,STARLINK-3730,PAYLOAD,2022-09-12 22:00:00,15.08823171,0.0001616,53.2174,37.3024,44.8295,347.6171,0.001971,0.00031205,0.0,0 STARLINK-3730,1 52139U 22029BD  22255.91667824  .00031205  00000-0  19710-2 0  9995,2 52139  53.2174  37.3024 0001616  44.8295 347.6171 15.08823171  1308,6917.932,95.439,540.915,538.679,0.0
52139.0,STARLINK-3730,PAYLOAD,2022-09-13 06:00:00,15.08828589,0.0001489,53.2175,35.8045,52.6745,351.3658,0.0013299,0.00020934,0.0,0 STARLINK-3730,1 52139U 22029BD  22256.25001157  .00020934  00000-0  13299-2 0  9997,2 52139  53.2175  35.8045 0001489  52.6745 351.3658 15.08828589 28545,6917.915,95.438,540.81,538.75,0.0
52139.0,STARLINK-3730,PAYLOAD,2022-09-13 14:00:01,15.08839956,0.0001681,53.2176,34.3095,51.0123,4.6207,-0.0011062,-0.0001785,0.0,0 STARLINK-3730,1 52139U 22029BD  22256.58334491 -.00017850  00000-0 -11062-2 0  9994,2 52139  53.2176  34.3095 0001681  51.0123   4.6207 15.08839956  1305,6917.880999999999,95.438,540.908,538.5830000000002,0.0
52139.0,STARLINK-3730,PAYLOAD,2022-09-13 22:00:00,15.08828641,0.0001706999999999,53.2174,32.8136,45.0234,22.1864,-0.0010712999999999,-0.00017292,0.0,0 STARLINK-3730,1 52139U 22029BD  22256.91667824 -.00017292  00000-0 -10713-2 0  9992,2 52139  53.2174  32.8136 0001707  45.0234  22.1864 15.08828641 28646,6917.915,95.438,540.961,538.599,0.0
52139.0,STARLINK-3730,PAYLOAD,2022-09-14 14:00:01,15.08838423,0.0001704,53.2178,29.8208,48.8386,41.5132,-0.00097153,-0.00015716,0.0,0 STARLINK-3730,1 52139U 22029BD  22257.58334491 -.00015716  00000-0 -97153-3 0  9990,2 52139  53.2178  29.8208 0001704  48.8386  41.5132 15.08838423 28745,6917.885,95.438,540.929,538.571,0.0
52139.0,STARLINK-3730,PAYLOAD,2022-09-14 22:00:00,15.0884924,0.0001810999999999,53.2178,28.3248,44.3251,57.6084,-0.0013773,-0.00022147,0.0,0 STARLINK-3730,1 52139U 22029BD  22257.91667824 -.00022147  00000-0 -13773-2 0  9997,2 52139  53.2178  28.3248 0001811  44.3251  57.6084 15.08849240  1300,6917.852,95.437,540.97,538.464,0.0
52139.0,STARLINK-3730,PAYLOAD,2022-09-15 06:00:00,15.08804306,0.000171,53.218,26.8268,52.1718,61.375,0.0036010999999999,0.00057435,0.0,0 STARLINK-3730,1 52139U 22029BD  22258.25001157  .00057435  00000-0  36011-2 0  9992,2 52139  53.2180  26.8268 0001710  52.1718  61.3750 15.08804306 28845,6917.989000000001,95.44,541.0369999999998,538.672,0.0
52139.0,STARLINK-3730,PAYLOAD,2022-09-15 14:00:01,15.08848411,0.0001878,53.2182,25.332,49.426,75.6963,-0.00062189,-0.00010174,0.0,0 STARLINK-3730,1 52139U 22029BD  22258.58334491 -.00010174  00000-0 -62189-3 0  9995,2 52139  53.2182  25.3320 0001878  49.4260  75.6963 15.08848411  1307,6917.855,95.437,541.019,538.4209999999998,0.0
52139.0,STARLINK-3730,PAYLOAD,2022-09-15 18:13:02,15.08844776,0.0001791,53.2185,24.5419,53.6471,306.4687,4.0431e-06,-2.24e-06,0.0,0 STARLINK-3730,1 52139U 22029BD  22258.75905792 -.00000224  00000-0  40431-5 0  9994,2 52139  53.2185  24.5419 0001791  53.6471 306.4687 15.08844776 28920,6917.866,95.437,540.97,538.492,0.0
52139.0,STARLINK-3730,PAYLOAD,2022-09-16 11:42:17,15.08837274,0.0001703,53.2192,21.2708,50.0349,310.0793,0.00019297,2.784e-05,0.0,0 STARLINK-3730,1 52139U 22029BD  22259.48770050  .00002784  00000-0  19297-3 0  9998,2 52139  53.2192  21.2708 0001703  50.0349 310.0793 15.08837274 29038,6917.889,95.438,540.932,538.576,0.0
52139.0,STARLINK-3730,PAYLOAD,2022-09-17 03:36:09,15.088321100000002,0.0002004,53.2196,18.2996,40.6769,319.4373,5.3297e-05,5.6e-06,0.0,0 STARLINK-3730,1 52139U 22029BD  22260.15010852  .00000560  00000-0  53297-4 0  9990,2 52139  53.2196  18.2996 0002004  40.6769 319.4373 15.08832110 29135,6917.905,95.438,541.156,538.383,0.0
52139.0,STARLINK-3730,PAYLOAD,2022-09-17 11:33:04,15.08837605,0.0002020999999999,53.2196,16.813,41.6718,318.4428,7.7923e-05,9.52e-06,0.0,0 STARLINK-3730,1 52139U 22029BD  22260.48130464  .00000952  00000-0  77923-4 0  9995,2 52139  53.2196  16.8130 0002021  41.6718 318.4428 15.08837605 29182,6917.888000000001,95.438,541.151,538.355,0.0
